0 IRIDIUM 30
1 24949U 97051F   13281.49570736  .00000061  00000-0  14872-4 0  5704
2 24949 086.3957 130.5384 0002154 104.7107 255.4327 14.34219269841231
0 IRIDIUM 30
1 24949U 97051F   13281.49570736  .00000061  00000-0  14872-4 0  5715
2 24949 086.3957 130.5384 0002154 104.7107 255.4327 14.34219269841231
0 IRIDIUM 30
1 24949U 97051F   13282.54223380  .00000078  00000-0  20734-4 0  5725
2 24949 086.3955 130.1011 0002149 104.7098 255.4336 14.34219505841384
0 IRIDIUM 30
1 24949U 97051F   13283.51899158  .00000110  00000-0  32063-4 0  5731
2 24949 086.3953 129.6928 0002150 104.7142 255.4293 14.34219826841528
0 IRIDIUM 30
1 24949U 97051F   13284.49574926  .00000133  00000-0  40410-4 0  5743
2 24949 086.3951 129.2846 0002154 104.5880 255.5554 14.34220082841664
0 IRIDIUM 30
1 24949U 97051F   13285.47250683  .00000128  00000-0  38557-4 0  5757
2 24949 086.3950 128.8763 0002154 104.5933 255.5502 14.34220313841801
0 IRIDIUM 30
1 24949U 97051F   13286.44926432  .00000124  00000-0  37275-4 0  5760
2 24949 086.3948 128.4681 0002146 104.5781 255.5653 14.34220523841940
0 IRIDIUM 30
1 24949U 97051F   13287.49579023  .00000111  00000-0  32644-4 0  5778
2 24949 086.3947 128.0305 0002144 104.6697 255.4736 14.34220777842092
0 IRIDIUM 30
1 24949U 97051F   13287.49579023  .00000111  00000-0  32644-4 0  5789
2 24949 086.3947 128.0305 0002144 104.6697 255.4736 14.34220777842092
0 IRIDIUM 30
1 24949U 97051F   13288.47254751  .00000116  00000-0  34431-4 0  5798
2 24949 086.3946 127.6222 0002146 104.5674 255.5760 14.34221052842231
0 IRIDIUM 30
1 24949U 97051F   13289.44930436  .00000100  00000-0  28796-4 0  5809
2 24949 086.3946 127.2138 0002143 104.7869 255.3565 14.34221494842374
0 IRIDIUM 30
1 24949U 97051F   13290.49582932  .00000116  00000-0  34363-4 0  5815
2 24949 086.3946 126.7763 0002146 105.1660 254.9773 14.34221846842523
0 IRIDIUM 30
1 24949U 97051F   13291.47258572  .00000125  00000-0  37646-4 0  5822
2 24949 086.3947 126.3679 0002155 105.0210 255.1224 14.34222088842664
0 IRIDIUM 30
1 24949U 97051F   13292.44934194  .00000137  00000-0  41766-4 0  5833
2 24949 086.3947 125.9595 0002154 104.8938 255.2496 14.34222211842805
0 IRIDIUM 30
1 24949U 97051F   13293.49586639  .00000138  00000-0  42099-4 0  5848
2 24949 086.3947 125.5219 0002147 104.9212 255.2222 14.34222381842953
0 IRIDIUM 30
1 24949U 97051F   13293.49586639  .00000138  00000-0  42099-4 0  5859
2 24949 086.3947 125.5219 0002147 104.9212 255.2222 14.34222381842953
0 IRIDIUM 30
1 24949U 97051F   13294.47262241  .00000138  00000-0  42163-4 0  5861
2 24949 086.3947 125.1136 0002145 104.8854 255.2580 14.34222569843097
0 IRIDIUM 30
1 24949U 97051F   13295.44937828  .00000155  00000-0  48185-4 0  5879
2 24949 086.3947 124.7052 0002145 104.6886 255.4548 14.34222722843235
